{"type": "FeatureCollection", "features": [ {"type": "Feature", "properties": {"norad_id": 44622, "name": "GAOFEN-10R", "group": "resource", "lat": 23.22239719917613, "lon": 117.46176115057449, "alt_km": 622.3362837369359, "timestamp": "2025-12-12T11:38:31.073974+00:00", "meta": {"OBJECT_NAME": "GAOFEN-10R", "OBJECT_ID": "2019-066A", "EPOCH": "2025-12-12T04:27:40.381920", "MEAN_MOTION": 14.82789828, "ECCENTRICITY": 0.0007923, "INCLINATION": 98.0276, "RA_OF_ASC_NODE": 293.6899, "ARG_OF_PERICENTER": 43.6891, "MEAN_ANOMALY": 316.4948, "EPHEMERIS_TYPE": 0, "CLASSIFICATION_TYPE": "U", "NORAD_CAT_ID": 44622, "ELEMENT_SET_NO": 999, "REV_AT_EPOCH": 33466, "BSTAR": 0.00035673, "MEAN_MOTION_DOT": 2.832e-05, "MEAN_MOTION_DDOT": 0}, "tle": {"line1": "1 44622U 19066A   25346.18588405  .00002832  00000+0  35673-3 0  9990", "line2": "2 44622  98.0276 293.6899 0007923  43.6891 316.4948 14.82789828334664"}}, "geometry": {"type": "Point", "coordinates": [117.46176115057449, 23.22239719917613]}}, {"type": "Feature", "properties": {"norad_id": 44804, "name": "CARTOSAT-3", "group": "resource", "lat": -72.06615864744376, "lon": 69.94960479595836, "alt_km": 524.7793662905051, "timestamp": "2025-12-12T11:38:31.073984+00:00", "meta": {"OBJECT_NAME": "CARTOSAT-3", "OBJECT_ID": "2019-081A", "EPOCH": "2025-12-12T05:38:34.173600", "MEAN_MOTION": 15.1914847, "ECCENTRICITY": 0.0014215, "INCLINATION": 97.4585, "RA_OF_ASC_NODE": 45.825, "ARG_OF_PERICENTER": 85.0376, "MEAN_ANOMALY": 275.2481, "EPHEMERIS_TYPE": 0, "CLASSIFICATION_TYPE": "U", "NORAD_CAT_ID": 44804, "ELEMENT_SET_NO": 999, "REV_AT_EPOCH": 33508, "BSTAR": 0.00044037, "MEAN_MOTION_DOT": 9.214e-05, "MEAN_MOTION_DDOT": 0}, "tle": {"line1": "1 44804U 19081A   25346.23511775  .00009214  00000+0  44037-3 0  9996", "line2": "2 44804  97.4585  45.8250 0014215  85.0376 275.2481 15.19148470335084"}}, "geometry": {"type": "Point", "coordinates": [69.94960479595836, -72.06615864744376]}}, {"type": "Feature", "properties": {"norad_id": 44819, "name": "GAOFEN-12 01", "group": "resource", "lat": 64.14977177115209, "lon": -23.68947636056885, "alt_km": 621.8994721346762, "timestamp": "2025-12-12T11:38:31.073994+00:00", "meta": {"OBJECT_NAME": "GAOFEN-12 01", "OBJECT_ID": "2019-082A", "EPOCH": "2025-12-12T04:51:37.984608", "MEAN_MOTION": 14.80656361, "ECCENTRICITY": 0.0001299, "INCLINATION": 97.8126, "RA_OF_ASC_NODE": 352.4976, "ARG_OF_PERICENTER": 236.6653, "MEAN_ANOMALY": 123.4435, "EPHEMERIS_TYPE": 0, "CLASSIFICATION_TYPE": "U", "NORAD_CAT_ID": 44819, "ELEMENT_SET_NO": 999, "REV_AT_EPOCH": 32642, "BSTAR": 0.00011393, "MEAN_MOTION_DOT": 8.24e-06, "MEAN_MOTION_DDOT": 0}, "tle": {"line1": "1 44819U 19082A   25346.20252297  .00000824  00000+0  11393-3 0  9998", "line2": "2 44819  97.8126 352.4976 0001299 236.6653 123.4435 14.80656361326428"}}, "geometry": {"type": "Point", "coordinates": [-23.68947636056885, 64.14977177115209]}}, {"type": "Feature", "properties": {"norad_id": 44873, "name": "CSG-1", "group": "resource", "lat": 4.927357809141679, "lon": -11.5028248911236, "alt_km": 624.878092467311, "timestamp": "2025-12-12T11:38:31.074004+00:00", "meta": {"OBJECT_NAME": "CSG-1", "OBJECT_ID": "2019-092A", "EPOCH": "2025-12-12T04:22:28.166016", "MEAN_MOTION": 14.82163213, "ECCENTRICITY": 0.0001442, "INCLINATION": 97.881, "RA_OF_ASC_NODE": 167.5148, "ARG_OF_PERICENTER": 84.9381, "MEAN_ANOMALY": 275.1996, "EPHEMERIS_TYPE": 0, "CLASSIFICATION_TYPE": "U", "NORAD_CAT_ID": 44873, "ELEMENT_SET_NO": 999, "REV_AT_EPOCH": 32377, "BSTAR": 0.00013341, "MEAN_MOTION_DOT": 1.01e-05, "MEAN_MOTION_DDOT": 0}, "tle": {"line1": "1 44873U 19092A   25346.18227044  .00001010  00000+0  13341-3 0  9991", "line2": "2 44873  97.8810 167.5148 0001442  84.9381 275.1996 14.82163213323779"}}, "geometry": {"type": "Point", "coordinates": [-11.5028248911236, 4.927357809141679]}}, {"type": "Feature", "properties": {"norad_id": 46277, "name": "NEMO-HD", "group": "resource", "lat": -77.37620584350161, "lon": 80.06784201679531, "alt_km": 453.46212740423107, "timestamp": "2025-12-12T11:38:31.074014+00:00", "meta": {"OBJECT_NAME": "NEMO-HD", "OBJECT_ID": "2020-061F", "EPOCH": "2025-12-12T04:11:29.513760", "MEAN_MOTION": 15.40308266, "ECCENTRICITY": 0.0001917, "INCLINATION": 97.2212, "RA_OF_ASC_NODE": 45.2795, "ARG_OF_PERICENTER": 57.0603, "MEAN_ANOMALY": 303.0828, "EPHEMERIS_TYPE": 0, "CLASSIFICATION_TYPE": "U", "NORAD_CAT_ID": 46277, "ELEMENT_SET_NO": 999, "REV_AT_EPOCH": 29315, "BSTAR": 0.00039267, "MEAN_MOTION_DOT": 0.00015758, "MEAN_MOTION_DDOT": 0}, "tle": {"line1": "1 46277U 20061F   25346.17464715  .00015758  00000+0  39267-3 0  9995", "line2": "2 46277  97.2212  45.2795 0001917  57.0603 303.0828 15.40308266293151"}}, "geometry": {"type": "Point", "coordinates": [80.06784201679531, -77.37620584350161]}}, {"type": "Feature", "properties": {"norad_id": 46984, "name": "SENTINEL-6A", "group": "resource", "lat": 4.495558885128375, "lon": 164.84085490466643, "alt_km": 1339.6638122829909, "timestamp": "2025-12-12T11:38:31.074023+00:00", "meta": {"OBJECT_NAME": "SENTINEL-6A", "OBJECT_ID": "2020-086A", "EPOCH": "2025-12-11T20:37:32.818368", "MEAN_MOTION": 12.80930603, "ECCENTRICITY": 0.0007741, "INCLINATION": 66.0388, "RA_OF_ASC_NODE": 164.1366, "ARG_OF_PERICENTER": 269.2307, "MEAN_ANOMALY": 90.7821, "EPHEMERIS_TYPE": 0, "CLASSIFICATION_TYPE": "U", "NORAD_CAT_ID": 46984, "ELEMENT_SET_NO": 999, "REV_AT_EPOCH": 23633, "BSTAR": 0.00012281, "MEAN_MOTION_DOT": -3.3e-07, "MEAN_MOTION_DDOT": 0}, "tle": {"line1": "1 46984U 20086A   25345.85940762 -.00000033  00000+0  12281-3 0  9990", "line2": "2 46984  66.0388 164.1366 0007741 269.2307  90.7821 12.80930603236335"}}, "geometry": {"type": "Point", "coordinates": [164.84085490466643, 4.495558885128375]}}, {"type": "Feature", "properties": {"norad_id": 48079, "name": "GAOFEN-12 02", "group": "resource", "lat": 74.40209632985025, "lon": -49.6944993715326, "alt_km": 617.8511274154525, "timestamp": "2025-12-12T11:38:31.074034+00:00", "meta": {"OBJECT_NAME": "GAOFEN-12 02", "OBJECT_ID": "2021-026A", "EPOCH": "2025-12-12T04:48:36.372672", "MEAN_MOTION": 14.80674174, "ECCENTRICITY": 0.0003532, "INCLINATION": 97.9852, "RA_OF_ASC_NODE": 340.2094, "ARG_OF_PERICENTER": 102.3321, "MEAN_ANOMALY": 257.8287, "EPHEMERIS_TYPE": 0, "CLASSIFICATION_TYPE": "U", "NORAD_CAT_ID": 48079, "ELEMENT_SET_NO": 999, "REV_AT_EPOCH": 25409, "BSTAR": 0.00011788, "MEAN_MOTION_DOT": 8.53e-06, "MEAN_MOTION_DDOT": 0}, "tle": {"line1": "1 48079U 21026A   25346.20042098  .00000853  00000+0  11788-3 0  9997", "line2": "2 48079  97.9852 340.2094 0003532 102.3321 257.8287 14.80674174254098"}}, "geometry": {"type": "Point", "coordinates": [-49.6944993715326, 74.40209632985025]}}, {"type": "Feature", "properties": {"norad_id": 48268, "name": "PLEIADES NEO 3", "group": "resource", "lat": 36.80444243618721, "lon": -115.1110980966693, "alt_km": 620.7995186750268, "timestamp": "2025-12-12T11:38:31.074044+00:00", "meta": {"OBJECT_NAME": "PLEIADES NEO 3", "OBJECT_ID": "2021-034A", "EPOCH": "2025-12-12T06:08:16.261728", "MEAN_MOTION": 14.8166979, "ECCENTRICITY": 0.0001343, "INCLINATION": 97.8946, "RA_OF_ASC_NODE": 58.7036, "ARG_OF_PERICENTER": 99.0733, "MEAN_ANOMALY": 261.0631, "EPHEMERIS_TYPE": 0, "CLASSIFICATION_TYPE": "U", "NORAD_CAT_ID": 48268, "ELEMENT_SET_NO": 999, "REV_AT_EPOCH": 24997, "BSTAR": 0.00014904, "MEAN_MOTION_DOT": 1.121e-05, "MEAN_MOTION_DDOT": 0}, "tle": {"line1": "1 48268U 21034A   25346.25574377  .00001121  00000+0  14904-3 0  9993", "line2": "2 48268  97.8946  58.7036 0001343  99.0733 261.0631 14.81669790249975"}}, "geometry": {"type": "Point", "coordinates": [-115.1110980966693, 36.80444243618721]}}, {"type": "Feature", "properties": {"norad_id": 49070, "name": "PLEIADES NEO 4", "group": "resource", "lat": -36.95852586643181, "lon": 64.91797013236388, "alt_km": 630.9633540633204, "timestamp": "2025-12-12T11:38:31.074054+00:00", "meta": {"OBJECT_NAME": "PLEIADES NEO 4", "OBJECT_ID": "2021-073E", "EPOCH": "2025-12-12T05:19:37.992864", "MEAN_MOTION": 14.81676797, "ECCENTRICITY": 0.0001242, "INCLINATION": 97.8942, "RA_OF_ASC_NODE": 58.6661, "ARG_OF_PERICENTER": 91.8446, "MEAN_ANOMALY": 268.2909, "EPHEMERIS_TYPE": 0, "CLASSIFICATION_TYPE": "U", "NORAD_CAT_ID": 49070, "ELEMENT_SET_NO": 999, "REV_AT_EPOCH": 23368, "BSTAR": 9.3945e-07, "MEAN_MOTION_DOT": -4.5e-07, "MEAN_MOTION_DDOT": 0}, "tle": {"line1": "1 49070U 21073E   25346.22196751 -.00000045  00000+0  93945-6 0  9991", "line2": "2 49070  97.8942  58.6661 0001242  91.8446 268.2909 14.81676797233688"}}, "geometry": {"type": "Point", "coordinates": [64.91797013236388, -36.95852586643181]}}, {"type": "Feature", "properties": {"norad_id": 49260, "name": "LANDSAT 9", "group": "resource", "lat": 1.7446851270698895, "lon": 54.34791569521694, "alt_km": 705.2508129803746, "timestamp": "2025-12-12T11:38:31.074064+00:00", "meta": {"OBJECT_NAME": "LANDSAT 9", "OBJECT_ID": "2021-088A", "EPOCH": "2025-12-12T03:23:36.494304", "MEAN_MOTION": 14.57097003, "ECCENTRICITY": 0.0001181, "INCLINATION": 98.2092, "RA_OF_ASC_NODE": 54.2612, "ARG_OF_PERICENTER": 88.788, "MEAN_ANOMALY": 271.3453, "EPHEMERIS_TYPE": 0, "CLASSIFICATION_TYPE": "U", "NORAD_CAT_ID": 49260, "ELEMENT_SET_NO": 999, "REV_AT_EPOCH": 22376, "BSTAR": 0.00016838, "MEAN_MOTION_DOT": 7.13e-06, "MEAN_MOTION_DDOT": 0}, "tle": {"line1": "1 49260U 21088A   25346.14139461  .00000713  00000+0  16838-3 0  9998", "line2": "2 49260  98.2092  54.2612 0001181  88.7880 271.3453 14.57097003223764"}}, "geometry": {"type": "Point", "coordinates": [54.34791569521694, 1.7446851270698895]}}]}